Country,Region,Cercle,Commune,Village,Latitude,Longitude,LZNUM,LZCODE,LZNAMEEN,LZNAMEFR
Mali,Tombouctou,Tombouctou,Tombouctou,Abaradjo,16.7760104,-3.00884502,17,ML17,Urban,Milieu urbain
Mali,Tombouctou,Gourma-Rharous,Rharous,Acheick-koira,16.8408942,-2.0468522,3,ML03,"Niger Loop Rice, Livestock, and Fishing","Boucle du Niger riz, élevage et peche"
Mali,Tombouctou,Tombouctou,Lafia,Aglal,16.6143458,-2.6836714,2,ML02,Northern Livestock,Nord élevage
Mali,Gao,Gao,N'Tillit,Ahaidama,15.5548711,-0.4619503,2,ML02,Northern Livestock,Nord élevage
Mali,Douentza,Douentza,Petaka,Alabengouma,15.0623386,-2.80862552,13,ML13,Center-eastern Millet and Livestock,Centre-est mil et élevage
Mali,Douentza,Douentza,Petaka,Alamina,15.0542176,-2.8672044,13,ML13,Center-eastern Millet and Livestock,Centre-est mil et élevage
Mali,Douentza,Douentza,Dallah,Ama,15.1359161,-2.51541165,13,ML13,Center-eastern Millet and Livestock,Centre-est mil et élevage
Mali,Tombouctou,Gourma-Rharous,Serere,Amaragoungou,16.7836725,-2.3458389,3,ML03,"Niger Loop Rice, Livestock, and Fishing","Boucle du Niger riz, élevage et peche"
Mali,Bandiagara,Koro,Koro,Anakaga ,14.1268789,-3.05181865,13,ML13,Center-eastern Millet and Livestock,Centre-est mil et élevage
Mali,Bandiagara,Koro,Barapireli,Anakanda (Barapireli),14.3281179,-3.16925665,13,ML13,Center-eastern Millet and Livestock,Centre-est mil et élevage
Mali,Gao,Ansongo,Ansongo,Ansongo,15.6628029,0.50406548,3,ML03,"Niger Loop Rice, Livestock, and Fishing","Boucle du Niger riz, élevage et peche"
Mali,Tombouctou,Tombouctou,Bourem Inaly,Arnasaye,16.7047641,-2.7894794,3,ML03,"Niger Loop Rice, Livestock, and Fishing","Boucle du Niger riz, élevage et peche"
Mali,Gao,Gao,N'Tillit,Ayabosso,15.6142926,-0.4940097,2,ML02,Northern Livestock,Nord élevage
Mali,Tombouctou,Tombouctou,Tombouctou,Badjende,16.7689397,-3.00584502,17,ML17,Urban,Milieu urbain
Mali,Gao,Gao,Soni Ali Ber,Bagnadji,16.5077915,-0.1228839,3,ML03,"Niger Loop Rice, Livestock, and Fishing","Boucle du Niger riz, élevage et peche"
Mali,Bandiagara,Koro,Koro,Bam Koro,13.7363613,-3.0977469,9,ML09,Central Sorghum and Millet,Centre sorgho et mil
Mali,Bandiagara,Koro,Koro,Bana Gabou,13.7410419,-3.09503715,9,ML09,Central Sorghum and Millet,Centre sorgho et mil
Mali,Douentza,Douentza,Haire,Banaga,15.0676402,-2.22707752,13,ML13,Center-eastern Millet and Livestock,Centre-est mil et élevage
Mali,Bandiagara,Koro,Koro,Bana-koro,13.7363613,-3.0977469,9,ML09,Central Sorghum and Millet,Centre sorgho et mil
Mali,Tombouctou,Gourma-Rharous,Rharous,Banguil,16.8166258,-2.1734733,3,ML03,"Niger Loop Rice, Livestock, and Fishing","Boucle du Niger riz, élevage et peche"
Mali,Tombouctou,Gourma-Rharous,Banikane,Banikane I,16.9477755,-1.7506611,3,ML03,"Niger Loop Rice, Livestock, and Fishing","Boucle du Niger riz, élevage et peche"
Mali,Douentza,Douentza,Dallah,Baraoussi,15.135836,-2.57112052,13,ML13,Center-eastern Millet and Livestock,Centre-est mil et élevage
Mali,Bandiagara,Koro,Barapireli,Barapireli,14.3046359,-3.0558889,13,ML13,Center-eastern Millet and Livestock,Centre-est mil et élevage
Mali,Bandiagara,Koro,Koro,Bargou,13.9368307,-2.96799002,9,ML09,Central Sorghum and Millet,Centre sorgho et mil
Mali,Gao,Gao,Soni Ali Ber,Batal,16.3808199,-0.0118659,2,ML02,Northern Livestock,Nord élevage
Mali,Gao,Ansongo,Ansongo,Bazi-gourma,15.6997062,0.43141686,3,ML03,"Niger Loop Rice, Livestock, and Fishing","Boucle du Niger riz, élevage et peche"
Mali,Gao,Ansongo,Ansongo,Bazi Haoussa,15.6690534,0.50026561,3,ML03,"Niger Loop Rice, Livestock, and Fishing","Boucle du Niger riz, élevage et peche"
Mali,Bandiagara,Koro,Koro,Beguebombo,13.9569324,-3.15062627,9,ML09,Central Sorghum and Millet,Centre sorgho et mil
Mali,Tombouctou,Tombouctou,Tombouctou,Bella farandi,16.7718,-3.00452515,17,ML17,Urban,Milieu urbain
Mali,Tombouctou,Tombouctou,Bourem Inaly,Bellasaou-zeina,16.7058044,-2.7161609,3,ML03,"Niger Loop Rice, Livestock, and Fishing","Boucle du Niger riz, élevage et peche"
Mali,Tombouctou,Tombouctou,Bourem Inaly,Bellassao-djandjina,16.7180156,-2.71104115,3,ML03,"Niger Loop Rice, Livestock, and Fishing","Boucle du Niger riz, élevage et peche"
Mali,Douentza,Douentza,Haire,Beni bebby,15.0048544,-2.16100877,13,ML13,Center-eastern Millet and Livestock,Centre-est mil et élevage
Mali,Bandiagara,Koro,Koro,Benibana,14.099916,-3.16395627,9,ML09,Central Sorghum and Millet,Centre sorgho et mil
Mali,Tombouctou,Tombouctou,Bourem Inaly,Beragoungou,16.7226462,-2.59109365,3,ML03,"Niger Loop Rice, Livestock, and Fishing","Boucle du Niger riz, élevage et peche"
Mali,Bandiagara,Koro,Koro,Berou na,13.886056,-2.96243002,9,ML09,Central Sorghum and Millet,Centre sorgho et mil
Mali,Gao,Gao,Soni Ali Ber,Berrah,16.3227042,-0.02216565,3,ML03,"Niger Loop Rice, Livestock, and Fishing","Boucle du Niger riz, élevage et peche"
Mali,Bandiagara,Koro,Koro,Bih,13.9226196,-2.91159115,9,ML09,Central Sorghum and Millet,Centre sorgho et mil
Mali,Bandiagara,Koro,Koro,Biramaoude,14.0631601,-3.0756675,9,ML09,Central Sorghum and Millet,Centre sorgho et mil
Mali,Douentza,Douentza,Haire,Boni (haire),15.0713206,-2.22261765,13,ML13,Center-eastern Millet and Livestock,Centre-est mil et élevage
Mali,Tombouctou,Tombouctou,Lafia,Bori,16.692483,-2.77232977,3,ML03,"Niger Loop Rice, Livestock, and Fishing","Boucle du Niger riz, élevage et peche"
Mali,Gao,Ansongo,Bourra,Boubacar alamine,15.6759239,0.43604673,2,ML02,Northern Livestock,Nord élevage
Mali,Douentza,Douentza,Dallah,Boumban,15.0793105,-2.63555915,13,ML13,Center-eastern Millet and Livestock,Centre-est mil et élevage
Mali,Tombouctou,Tombouctou,Bourem Inaly,Bourem-inaly,16.6863522,-2.85151815,3,ML03,"Niger Loop Rice, Livestock, and Fishing","Boucle du Niger riz, élevage et peche"
Mali,Tombouctou,Gourma-Rharous,Banikane,Chambou,16.9900336,-1.6223544,3,ML03,"Niger Loop Rice, Livestock, and Fishing","Boucle du Niger riz, élevage et peche"
Mali,Tombouctou,Gourma-Rharous,Rharous,Cherifen ergo,16.8228474,-1.8144499,2,ML02,Northern Livestock,Nord élevage
Mali,Douentza,Douentza,Dallah,Dallah,15.105278,-2.6402779,13,ML13,Center-eastern Millet and Livestock,Centre-est mil et élevage
Mali,Tombouctou,Gourma-Rharous,Rharous,Dangouma Goungobomé,16.8441809,-2.1298792,3,ML03,"Niger Loop Rice, Livestock, and Fishing","Boucle du Niger riz, élevage et peche"
Mali,Douentza,Douentza,Petaka,Dansa,15.0706496,-2.72516727,13,ML13,Center-eastern Millet and Livestock,Centre-est mil et élevage
Mali,Bandiagara,Koro,Koro,Dim na,14.021419,-2.97287015,9,ML09,Central Sorghum and Millet,Centre sorgho et mil
Mali,Tombouctou,Tombouctou,Tombouctou,Djingareye ber,16.7698499,-3.00895502,17,ML17,Urban,Milieu urbain
Mali,Tombouctou,Gourma-Rharous,Rharous,Djiri-bibi,16.8401885,-2.07831452,3,ML03,"Niger Loop Rice, Livestock, and Fishing","Boucle du Niger riz, élevage et peche"
Mali,Gao,Gao,N'Tillit,Doreye,15.8126397,-0.41500952,2,ML02,Northern Livestock,Nord élevage
Mali,Douentza,Douentza,Douentza,Douentza,14.9913615,-2.95431227,13,ML13,Center-eastern Millet and Livestock,Centre-est mil et élevage
Mali,Douentza,Douentza,Kerena,Douma (Kerena),14.9148945,-2.85368427,13,ML13,Center-eastern Millet and Livestock,Centre-est mil et élevage
Mali,Douentza,Douentza,Douentza,Drimbe,15.0208745,-2.89630365,13,ML13,Center-eastern Millet and Livestock,Centre-est mil et élevage
Mali,Tombouctou,Gourma-Rharous,Banikane,Egachar,16.984722,-1.743611,3,ML03,"Niger Loop Rice, Livestock, and Fishing","Boucle du Niger riz, élevage et peche"
Mali,Gao,Gao,N'Tillit,Egaf noredj,16.2384279,-0.0315295,17,ML17,Urban,Milieu urbain
Mali,Gao,Ansongo,Tessit,Eguedech I,15.3149977,-0.3293869,4,ML04,"Central Livestock, Millet, and Remittances","Centre élevage, mil et transferts"
Mali,Gao,Ansongo,Tessit,Eguedech Ii,15.3230697,0.22131198,4,ML04,"Central Livestock, Millet, and Remittances","Centre élevage, mil et transferts"
Mali,Douentza,Douentza,Haire,Ela boni,15.0640597,-2.24673715,13,ML13,Center-eastern Millet and Livestock,Centre-est mil et élevage
Mali,Bandiagara,Koro,Koro,Ene,14.1409601,-3.05336865,13,ML13,Center-eastern Millet and Livestock,Centre-est mil et élevage
Mali,Douentza,Douentza,Douentza,Ewery,14.9651891,-2.92947277,13,ML13,Center-eastern Millet and Livestock,Centre-est mil et élevage
Mali,Tombouctou,Gourma-Rharous,Rharous,Feitawane kitia,16.8438323,-2.1176104,3,ML03,"Niger Loop Rice, Livestock, and Fishing","Boucle du Niger riz, élevage et peche"
Mali,Douentza,Douentza,Douentza,Fombori,14.9780204,-2.94241252,13,ML13,Center-eastern Millet and Livestock,Centre-est mil et élevage
Mali,Gao,Gao,Soni Ali Ber,Forgho Arma,16.4698681,-0.06557502,3,ML03,"Niger Loop Rice, Livestock, and Fishing","Boucle du Niger riz, élevage et peche"
Mali,Gao,Gao,Soni Ali Ber,Forgho Sonrai,16.5045813,-0.07519502,3,ML03,"Niger Loop Rice, Livestock, and Fishing","Boucle du Niger riz, élevage et peche"
Mali,Gao,Ansongo,Tessit,Foulane kel gogui,15.226405,0.2903033,4,ML04,"Central Livestock, Millet, and Remittances","Centre élevage, mil et transferts"
Mali,Tombouctou,Gourma-Rharous,Rharous,Gaberi,16.9078152,-1.87956877,3,ML03,"Niger Loop Rice, Livestock, and Fishing","Boucle du Niger riz, élevage et peche"
Mali,Douentza,Douentza,Haire,Gai,15.0997735,-2.1180299,13,ML13,Center-eastern Millet and Livestock,Centre-est mil et élevage
Mali,Bandiagara,Koro,Koro,Gakou,13.6892671,-2.98395927,9,ML09,Central Sorghum and Millet,Centre sorgho et mil
Mali,Bandiagara,Koro,Koro,Gnini,14.0135678,-3.13857652,9,ML09,Central Sorghum and Millet,Centre sorgho et mil
Mali,Gao,Ansongo,Bourra,Gollingo,15.4845161,0.64392298,3,ML03,"Niger Loop Rice, Livestock, and Fishing","Boucle du Niger riz, élevage et peche"
Mali,Bandiagara,Koro,Koro,Gomso Baroua,13.9923062,-2.91332127,9,ML09,Central Sorghum and Millet,Centre sorgho et mil
Mali,Bandiagara,Koro,Koro,Gomsona,13.9955765,-2.9252009,9,ML09,Central Sorghum and Millet,Centre sorgho et mil
Mali,Douentza,Douentza,Petaka,Gono,15.0601184,-2.78894602,13,ML13,Center-eastern Millet and Livestock,Centre-est mil et élevage
Mali,Bandiagara,Koro,Koro,Gorobouro,14.1140175,-3.11913715,13,ML13,Center-eastern Millet and Livestock,Centre-est mil et élevage
Mali,Bandiagara,Koro,Barapireli,Goudiodourou,14.3211273,-3.06037877,13,ML13,Center-eastern Millet and Livestock,Centre-est mil et élevage
Mali,Douentza,Douentza,Douentza,Goumbena,14.9114139,-2.95832202,13,ML13,Center-eastern Millet and Livestock,Centre-est mil et élevage
Mali,Tombouctou,Gourma-Rharous,Banikane,Gouzougueye,16.943739,-1.71471227,3,ML03,"Niger Loop Rice, Livestock, and Fishing","Boucle du Niger riz, élevage et peche"
Mali,Douentza,Douentza,Haire,Guitram,15.0534285,-2.41180365,13,ML13,Center-eastern Millet and Livestock,Centre-est mil et élevage
Mali,Gao,Ansongo,Bourra,Hama Alkounti,16.1144062,0.71843998,2,ML02,Northern Livestock,Nord élevage
Mali,Tombouctou,Tombouctou,Tombouctou,Hamabangou,16.7064618,-2.9870796,17,ML17,Urban,Milieu urbain
Mali,Gao,Gao,Soni Ali Ber,Hamakouladji,16.6105212,-0.1132644,2,ML02,Northern Livestock,Nord élevage
Mali,Gao,Ansongo,Tessit,Haroune,15.149444,0.344166,4,ML04,"Central Livestock, Millet, and Remittances","Centre élevage, mil et transferts"
Mali,Gao,Gao,N'Tillit,Herbou ,16.2422442,-0.0394135,17,ML17,Urban,Milieu urbain
Mali,Tombouctou,Tombouctou,Bourem Inaly,Hewa,16.6694006,-2.8585479,3,ML03,"Niger Loop Rice, Livestock, and Fishing","Boucle du Niger riz, élevage et peche"
Mali,Tombouctou,Tombouctou,Bourem Inaly,Houndoubomo ababer,16.6672404,-2.88898715,3,ML03,"Niger Loop Rice, Livestock, and Fishing","Boucle du Niger riz, élevage et peche"
Mali,Gao,Gao,N'Tillit,Idarfane,16.20344091,-0.47712559,2,ML02,Northern Livestock,Nord élevage
Mali,Gao,Gao,N'Tillit,Idjandouyane,16.0597985,-0.40235715,2,ML02,Northern Livestock,Nord élevage
Mali,Tombouctou,Gourma-Rharous,Rharous,Igawadaren ii,16.8139674,-2.1680828,3,ML03,"Niger Loop Rice, Livestock, and Fishing","Boucle du Niger riz, élevage et peche"
Mali,Tombouctou,Gourma-Rharous,Rharous,Igawadaren ouest ii,16.8139674,-2.1680828,3,ML03,"Niger Loop Rice, Livestock, and Fishing","Boucle du Niger riz, élevage et peche"
Mali,Gao,Gao,N'Tillit,Ikarayrayane,16.2004422,-0.1869519,2,ML02,Northern Livestock,Nord élevage
Mali,Tombouctou,Gourma-Rharous,Rharous,Ikorchatane benguel ii,16.8737039,-1.9299815,3,ML03,"Niger Loop Rice, Livestock, and Fishing","Boucle du Niger riz, élevage et peche"
Mali,Tombouctou,Gourma-Rharous,Rharous,Ikorchatane Bengaou,16.7916021,-2.2265596,3,ML03,"Niger Loop Rice, Livestock, and Fishing","Boucle du Niger riz, élevage et peche"
Mali,Gao,Ansongo,Tessit,Imarad I,15.4335301,0.10248411,4,ML04,"Central Livestock, Millet, and Remittances","Centre élevage, mil et transferts"
Mali,Gao,Gao,N'Tillit,Issamedewane ,16.1131538,-0.8617045,2,ML02,Northern Livestock,Nord élevage
Mali,Tombouctou,Tombouctou,Tombouctou,Kabara,16.7025535,-2.9850954,17,ML17,Urban,Milieu urbain
Mali,Tombouctou,Tombouctou,Lafia,Kaga,16.7256163,-2.68042177,3,ML03,"Niger Loop Rice, Livestock, and Fishing","Boucle du Niger riz, élevage et peche"
Mali,Tombouctou,Gourma-Rharous,Rharous,Kal alhafra,16.4088553,-1.7670616,2,ML02,Northern Livestock,Nord élevage
Mali,Tombouctou,Gourma-Rharous,Serere,Kano,16.768841,-2.39520777,3,ML03,"Niger Loop Rice, Livestock, and Fishing","Boucle du Niger riz, élevage et peche"
Mali,Bandiagara,Koro,Koro,Karakamba,14.1061566,-3.18090602,9,ML09,Central Sorghum and Millet,Centre sorgho et mil
Mali,Gao,Gao,Soni Ali Ber,Kareibandia,16.6372037,-0.1647234,2,ML02,Northern Livestock,Nord élevage
Mali,Tombouctou,Gourma-Rharous,Rharous,Kel antsar tintadeini,16.408394,-1.7659301,2,ML02,Northern Livestock,Nord élevage
Mali,Gao,Ansongo,Tessit,Kel Gossi Foulane,15.469213,-0.06801252,2,ML02,Northern Livestock,Nord élevage
Mali,Tombouctou,Gourma-Rharous,Rharous,Kel guenchichi ii,16.8144421,-2.1663232,3,ML03,"Niger Loop Rice, Livestock, and Fishing","Boucle du Niger riz, élevage et peche"
Mali,Tombouctou,Gourma-Rharous,Rharous,Kel guenchichi tabakat,16.7859128,-2.1812652,3,ML03,"Niger Loop Rice, Livestock, and Fishing","Boucle du Niger riz, élevage et peche"
Mali,Gao,Gao,N'Tillit,Kel gueris,16.0781702,-0.3650879,2,ML02,Northern Livestock,Nord élevage
Mali,Tombouctou,Gourma-Rharous,Rharous,Kel horma haoussa,16.9432887,-1.78572077,3,ML03,"Niger Loop Rice, Livestock, and Fishing","Boucle du Niger riz, élevage et peche"
Mali,Tombouctou,Tombouctou,Bourem Inaly,Kel incharia,16.6952944,-2.8995435,3,ML03,"Niger Loop Rice, Livestock, and Fishing","Boucle du Niger riz, élevage et peche"
Mali,Tombouctou,Gourma-Rharous,Rharous,Kel hikikane seréré,16.8144021,-2.1664376,3,ML03,"Niger Loop Rice, Livestock, and Fishing","Boucle du Niger riz, élevage et peche"
Mali,Tombouctou,Gourma-Rharous,Rharous,Kel oulli ouest ii,16.8455821,-2.1943361,3,ML03,"Niger Loop Rice, Livestock, and Fishing","Boucle du Niger riz, élevage et peche"
Mali,Gao,Ansongo,Bourra,Kel Tafoulane,15.6706636,0.57022411,4,ML04,"Central Livestock, Millet, and Remittances","Centre élevage, mil et transferts"
Mali,Gao,Gao,N'Tillit,Kel takabott,16.022815,-0.3179803,2,ML02,Northern Livestock,Nord élevage
Mali,Tombouctou,Tombouctou,Lafia,Kel takassit,16.647359,-2.65044215,2,ML02,Northern Livestock,Nord élevage
Mali,Tombouctou,Tombouctou,Lafia,Kel tamoulett blanc,16.639028,-2.71711077,2,ML02,Northern Livestock,Nord élevage
Mali,Tombouctou,Tombouctou,Lafia,Kel tamoulett blanc tougouff,16.711361,-2.865,3,ML03,"Niger Loop Rice, Livestock, and Fishing","Boucle du Niger riz, élevage et peche"
Mali,Tombouctou,Tombouctou,Lafia,Kel tamoulett noir,16.6390281,-2.70877102,2,ML02,Northern Livestock,Nord élevage
Mali,Tombouctou,Tombouctou,Lafia,Kel-taborit,16.689033,-2.6171129,3,ML03,"Niger Loop Rice, Livestock, and Fishing","Boucle du Niger riz, élevage et peche"
Mali,Bandiagara,Koro,Koro,Kenewe,14.086695,-3.04383877,9,ML09,Central Sorghum and Millet,Centre sorgho et mil
Mali,Douentza,Douentza,Kerena,Kerena,15.0282356,-2.6874779,13,ML13,Center-eastern Millet and Livestock,Centre-est mil et élevage
Mali,Bandiagara,Koro,Koro,Kini Ourodourou,13.9561225,-3.08929765,9,ML09,Central Sorghum and Millet,Centre sorgho et mil
Mali,Bandiagara,Koro,Koro,Koro,13.9682337,-3.02883877,9,ML09,Central Sorghum and Millet,Centre sorgho et mil
Mali,Gao,Gao,Soni Ali Ber,Kochakareye,16.4410952,-0.1211139,3,ML03,"Niger Loop Rice, Livestock, and Fishing","Boucle du Niger riz, élevage et peche"
Mali,Gao,Ansongo,Tessit,Koko,15.1411111,0.12861111,4,ML04,"Central Livestock, Millet, and Remittances","Centre élevage, mil et transferts"
Mali,Gao,Gao,Soni Ali Ber,Kokorom,16.4184631,-0.1144839,3,ML03,"Niger Loop Rice, Livestock, and Fishing","Boucle du Niger riz, élevage et peche"
Mali,Tombouctou,Tombouctou,Lafia,Komeikoukou,16.721516,-2.64571252,3,ML03,"Niger Loop Rice, Livestock, and Fishing","Boucle du Niger riz, élevage et peche"
Mali,Tombouctou,Tombouctou,Lafia,Kouloutane,16.697363,-3.100433,2,ML02,Northern Livestock,Nord élevage
Mali,Gao,Ansongo,Bourra,Kounsoum,15.5144989,0.56519448,3,ML03,"Niger Loop Rice, Livestock, and Fishing","Boucle du Niger riz, élevage et peche"
Mali,Douentza,Douentza,Haire,Koyo-boni,15.06533,-2.18902827,13,ML13,Center-eastern Millet and Livestock,Centre-est mil et élevage
Mali,Gao,Ansongo,Bourra,Lellehoye,15.5445915,0.46897648,3,ML03,"Niger Loop Rice, Livestock, and Fishing","Boucle du Niger riz, élevage et peche"
Mali,Douentza,Douentza,Haire,Loro-foulbe,15.084412,-2.17212877,13,ML13,Center-eastern Millet and Livestock,Centre-est mil et élevage
Mali,Douentza,Douentza,Haire,Loro-habbe,15.0819416,-2.17873852,13,ML13,Center-eastern Millet and Livestock,Centre-est mil et élevage
Mali,Tombouctou,Gourma-Rharous,Serere,Madiakoye,16.7497392,-2.3636584,3,ML03,"Niger Loop Rice, Livestock, and Fishing","Boucle du Niger riz, élevage et peche"
Mali,Gao,Gao,Soni Ali Ber,Magnadoue,16.3823098,-0.05205515,3,ML03,"Niger Loop Rice, Livestock, and Fishing","Boucle du Niger riz, élevage et peche"
Mali,Gao,Ansongo,Bourra,Mamadou Tallatou,15.8140481,0.94030623,4,ML04,"Central Livestock, Millet, and Remittances","Centre élevage, mil et transferts"
Mali,Tombouctou,Gourma-Rharous,Serere,Mamadou-koira,16.7921633,-2.3201294,3,ML03,"Niger Loop Rice, Livestock, and Fishing","Boucle du Niger riz, élevage et peche"
Mali,Gao,Gao,N'Tillit,Marsi,16.2384862,-0.0316124,17,ML17,Urban,Milieu urbain
Mali,Gao,Gao,Soni Ali Ber,M'balde,16.5949797,-0.15984327,3,ML03,"Niger Loop Rice, Livestock, and Fishing","Boucle du Niger riz, élevage et peche"
Mali,Tombouctou,Tombouctou,Bourem Inaly,Milala,16.7578297,-2.52138502,3,ML03,"Niger Loop Rice, Livestock, and Fishing","Boucle du Niger riz, élevage et peche"
Mali,Gao,Ansongo,Ansongo,Monsonga,15.5454315,0.46363648,3,ML03,"Niger Loop Rice, Livestock, and Fishing","Boucle du Niger riz, élevage et peche"
Mali,Tombouctou,Gourma-Rharous,Serere,Moyadji-koira,16.7722815,-2.3139194,3,ML03,"Niger Loop Rice, Livestock, and Fishing","Boucle du Niger riz, élevage et peche"
Mali,Bandiagara,Koro,Barapireli,Nabene,14.3022055,-3.13977715,13,ML13,Center-eastern Millet and Livestock,Centre-est mil et élevage
Mali,Bandiagara,Koro,Barapireli,Nagadourou,14.3323984,-3.12030765,13,ML13,Center-eastern Millet and Livestock,Centre-est mil et élevage
Mali,Tombouctou,Gourma-Rharous,Rharous,Nana ii,16.8475214,-2.0272292,3,ML03,"Niger Loop Rice, Livestock, and Fishing","Boucle du Niger riz, élevage et peche"
Mali,Tombouctou,Gourma-Rharous,Rharous,Nana iii,16.8479184,-2.0311274,3,ML03,"Niger Loop Rice, Livestock, and Fishing","Boucle du Niger riz, élevage et peche"
Mali,Tombouctou,Gourma-Rharous,Rharous,N'diabi,16.8523483,-2.1076594,3,ML03,"Niger Loop Rice, Livestock, and Fishing","Boucle du Niger riz, élevage et peche"
Mali,Douentza,Douentza,Haire,Nemguene,15.0255559,-2.41219365,13,ML13,Center-eastern Millet and Livestock,Centre-est mil et élevage
Mali,Douentza,Douentza,Haire,Nissanata,15.0996232,-2.22627752,13,ML13,Center-eastern Millet and Livestock,Centre-est mil et élevage
Mali,Douentza,Douentza,Haire,Nokara,15.1726199,-2.39706427,13,ML13,Center-eastern Millet and Livestock,Centre-est mil et élevage
Mali,Gao,Gao,N'Tillit,Norbene,16.192601,-0.4248369,2,ML02,Northern Livestock,Nord élevage
Mali,Gao,Gao,N'Tillit,N'Tillit,15.5281977,-0.48465415,2,ML02,Northern Livestock,Nord élevage
Mali,Bandiagara,Koro,Koro,Ogosanhi,14.0160082,-3.0077194,9,ML09,Central Sorghum and Millet,Centre sorgho et mil
Mali,Bandiagara,Koro,Barapireli,Ogotene,14.313927,-2.97150077,13,ML13,Center-eastern Millet and Livestock,Centre-est mil et élevage
Mali,Gao,Ansongo,Tessit,Oudalan Chagaren Ii,15.5415793,-0.28497827,2,ML02,Northern Livestock,Nord élevage
Mali,Gao,Ansongo,Tessit,Oudalan Kawalan I,15.2195491,-0.10538115,4,ML04,"Central Livestock, Millet, and Remittances","Centre élevage, mil et transferts"
Mali,Gao,Ansongo,Tessit,Oudalan kawalan ii,15.3609127,-0.05455252,4,ML04,"Central Livestock, Millet, and Remittances","Centre élevage, mil et transferts"
Mali,Tombouctou,Tombouctou,Bourem Inaly,Oulad idriss,16.6949839,-2.8265035,3,ML03,"Niger Loop Rice, Livestock, and Fishing","Boucle du Niger riz, élevage et peche"
Mali,Bandiagara,Koro,Koro,Ourekorohin,14.0081172,-3.17946577,9,ML09,Central Sorghum and Millet,Centre sorgho et mil
Mali,Douentza,Douentza,Haire,Ouro-djoumal,15.0890228,-1.94291327,13,ML13,Center-eastern Millet and Livestock,Centre-est mil et élevage
Mali,Douentza,Douentza,Haire,Ouro-fassy,14.7922125,-3.03455027,5,ML05,Dogon Plateau Millet and Shallots,Plateau Dogon mil et échalote
Mali,Bandiagara,Koro,Barapireli,Ourokoum,14.2488105,-3.05847865,13,ML13,Center-eastern Millet and Livestock,Centre-est mil et élevage
Mali,Douentza,Douentza,Haire,Ouro-mamou,15.1452082,-1.9750929,13,ML13,Center-eastern Millet and Livestock,Centre-est mil et élevage
Mali,Douentza,Douentza,Haire,Ouro-n'guerou,15.1048839,-2.1611089,13,ML13,Center-eastern Millet and Livestock,Centre-est mil et élevage
Mali,Gao,Gao,N'Tillit,Oussadja,16.0826387,-0.2602098,2,ML02,Northern Livestock,Nord élevage
Mali,Bandiagara,Koro,Koro,Pene,14.1426602,-3.12501715,13,ML13,Center-eastern Millet and Livestock,Centre-est mil et élevage
Mali,Douentza,Douentza,Petaka,Petaka,15.0209546,-2.84904452,13,ML13,Center-eastern Millet and Livestock,Centre-est mil et élevage
Mali,Bandiagara,Koro,Koro,Pique,13.8836955,-3.15956602,9,ML09,Central Sorghum and Millet,Centre sorgho et mil
Mali,Bandiagara,Koro,Koro,Pomoro Dodioni Begue,14.1584416,-3.16034652,13,ML13,Center-eastern Millet and Livestock,Centre-est mil et élevage
Mali,Bandiagara,Koro,Koro,Pomorododiou nah,14.1506707,-3.32363315,9,ML09,Central Sorghum and Millet,Centre sorgho et mil
Mali,Bandiagara,Koro,Koro,Pongono,13.9004972,-3.02396877,9,ML09,Central Sorghum and Millet,Centre sorgho et mil
Mali,Douentza,Douentza,Haire,Pringa,15.104564,-2.14970915,13,ML13,Center-eastern Millet and Livestock,Centre-est mil et élevage
Mali,Tombouctou,Gourma-Rharous,Rharous,Ra?hane,16.878236,-1.9247003,3,ML03,"Niger Loop Rice, Livestock, and Fishing","Boucle du Niger riz, élevage et peche"
Mali,Tombouctou,Gourma-Rharous,Rharous,Rharous,16.8797125,-1.92326777,3,ML03,"Niger Loop Rice, Livestock, and Fishing","Boucle du Niger riz, élevage et peche"
Mali,Tombouctou,Gourma-Rharous,Rharous,Sahamar,16.8915735,-1.95469727,3,ML03,"Niger Loop Rice, Livestock, and Fishing","Boucle du Niger riz, élevage et peche"
Mali,Gao,Ansongo,Tessit,Sakarewel,15.661238,0.5067957,3,ML03,"Niger Loop Rice, Livestock, and Fishing","Boucle du Niger riz, élevage et peche"
Mali,Bandiagara,Koro,Koro,Sana,14.0571824,-2.98015002,9,ML09,Central Sorghum and Millet,Centre sorgho et mil
Mali,Bandiagara,Koro,Barapireli,Sandiourou,14.3224074,-3.12430752,13,ML13,Center-eastern Millet and Livestock,Centre-est mil et élevage
Mali,Tombouctou,Tombouctou,Tombouctou,Sankore,16.7750602,-3.00871502,17,ML17,Urban,Milieu urbain
Mali,Tombouctou,Tombouctou,Tombouctou,Sareikaina,16.7671995,-3.00422502,17,ML17,Urban,Milieu urbain
Mali,Bandiagara,Koro,Koro,Segue (Koro),13.8121789,-2.96627977,9,ML09,Central Sorghum and Millet,Centre sorgho et mil
Mali,Bandiagara,Koro,Koro,Seguembengou,14.1484108,-3.07681815,13,ML13,Center-eastern Millet and Livestock,Centre-est mil et élevage
Mali,Gao,Gao,Soni Ali Ber,Seina,16.3543372,-0.01949565,3,ML03,"Niger Loop Rice, Livestock, and Fishing","Boucle du Niger riz, élevage et peche"
Mali,Gao,Ansongo,Ansongo,Seyna Bellah,15.6037871,0.50064573,3,ML03,"Niger Loop Rice, Livestock, and Fishing","Boucle du Niger riz, élevage et peche"
Mali,Gao,Ansongo,Ansongo,Seyna sonrhai,15.6104379,0.50311548,3,ML03,"Niger Loop Rice, Livestock, and Fishing","Boucle du Niger riz, élevage et peche"
Mali,Tombouctou,Gourma-Rharous,Rharous,Simbe,16.91012548,-1.84376952,3,ML03,"Niger Loop Rice, Livestock, and Fishing","Boucle du Niger riz, élevage et peche"
Mali,Bandiagara,Koro,Koro,Sissahin,13.9058975,-3.14377627,9,ML09,Central Sorghum and Millet,Centre sorgho et mil
Mali,Bandiagara,Koro,Koro,Sogou (Koro),14.0581321,-3.12644702,9,ML09,Central Sorghum and Millet,Centre sorgho et mil
Mali,Bandiagara,Koro,Barapireli,Sogou-yaguem,14.34653,-3.02326965,13,ML13,Center-eastern Millet and Livestock,Centre-est mil et élevage
Mali,Bandiagara,Koro,Barapireli,Somanagoro,14.2888043,-3.0815684,13,ML13,Center-eastern Millet and Livestock,Centre-est mil et élevage
Mali,Bandiagara,Koro,Koro,Soyema,14.0765682,-3.0870893,9,ML09,Central Sorghum and Millet,Centre sorgho et mil
Mali,Douentza,Douentza,Haire,Tabi,15.0246465,-2.05199102,13,ML13,Center-eastern Millet and Livestock,Centre-est mil et élevage
Mali,Douentza,Douentza,Dallah,Taby Maoude,15.0038032,-2.7142774,13,ML13,Center-eastern Millet and Livestock,Centre-est mil et élevage
Mali,Gao,Gao,N'Tillit,Tagaragat kawolet gourma,16.113061,-0.8617185,2,ML02,Northern Livestock,Nord élevage
Mali,Bandiagara,Koro,Barapireli,Tagourou (Barapireli),14.35104,-3.18826627,13,ML13,Center-eastern Millet and Livestock,Centre-est mil et élevage
Mali,Bandiagara,Koro,Barapireli,Tantouma,14.361,-3.155,13,ML13,Center-eastern Millet and Livestock,Centre-est mil et élevage
Mali,Gao,Ansongo,Bourra,Tassiga,15.4699047,0.71076173,3,ML03,"Niger Loop Rice, Livestock, and Fishing","Boucle du Niger riz, élevage et peche"
Mali,Bandiagara,Koro,Koro,Taxouan,13.9651534,-3.08112777,9,ML09,Central Sorghum and Millet,Centre sorgho et mil
Mali,Bandiagara,Koro,Barapireli,Tendji-ireli,14.3667415,-3.19622615,13,ML13,Center-eastern Millet and Livestock,Centre-est mil et élevage
Mali,Gao,Ansongo,Tessit,Tessit,15.222439,-0.2926274,4,ML04,"Central Livestock, Millet, and Remittances","Centre élevage, mil et transferts"
Mali,Gao,Gao,N'Tillit,Tidjalalene,16.0232051,-0.3173948,2,ML02,Northern Livestock,Nord élevage
Mali,Bandiagara,Koro,Koro,Timiri,13.7823845,-3.93372977,9,ML09,Central Sorghum and Millet,Centre sorgho et mil
Mali,Gao,Gao,Tilemsi,Tin Aouker,16.6620127,0.41228411,2,ML02,Northern Livestock,Nord élevage
Mali,Gao,Ansongo,Bourra,Tonditihio,15.514329,0.62763323,3,ML03,"Niger Loop Rice, Livestock, and Fishing","Boucle du Niger riz, élevage et peche"
Mali,Bandiagara,Koro,Koro,Tongonolegou ,14.0316596,-3.16409615,9,ML09,Central Sorghum and Millet,Centre sorgho et mil
Mali,Douentza,Douentza,Dallah,Torobani rimaibe,15.1185345,-2.53254127,13,ML13,Center-eastern Millet and Livestock,Centre-est mil et élevage
Mali,Douentza,Douentza,Haire,Toupere,15.0032342,-2.08578027,13,ML13,Center-eastern Millet and Livestock,Centre-est mil et élevage
Mali,Tombouctou,Gourma-Rharous,Banikane,Tourchawane,16.9458592,-1.6905129,3,ML03,"Niger Loop Rice, Livestock, and Fishing","Boucle du Niger riz, élevage et peche"
Mali,Bandiagara,Koro,Koro,Yadianga ,14.0670229,-3.19105565,9,ML09,Central Sorghum and Millet,Centre sorgho et mil
Mali,Bandiagara,Koro,Barapireli,Yassing,14.2776732,-3.04855902,13,ML13,Center-eastern Millet and Livestock,Centre-est mil et élevage
Mali,Bandiagara,Koro,Koro,Yogobenewe,14.8440771,-3.1574879,13,ML13,Center-eastern Millet and Livestock,Centre-est mil et élevage
Mali,Douentza,Douentza,Haire,Youna (Haire),15.0879022,-2.14015927,13,ML13,Center-eastern Millet and Livestock,Centre-est mil et élevage
Mali,Gao,Gao,Soni Ali Ber,Zindiga,16.309763,-0.04170502,3,ML03,"Niger Loop Rice, Livestock, and Fishing","Boucle du Niger riz, élevage et peche"
Mali,Bandiagara,Koro,Koro,Zon,13.8481121,-3.12292665,9,ML09,Central Sorghum and Millet,Centre sorgho et mil
Mali,Tombouctou,Tombouctou,Bourem Inaly,Tindjamban ,,,3,ML03,"Niger Loop Rice, Livestock, and Fishing","Boucle du Niger riz, élevage et peche"
Mali,Tombouctou,Gourma-Rharous,Serere,Waykaratane Borenda,,,4,ML04,"Central Livestock, Millet, and Remittances","Centre élevage, mil et transferts"
